{"type": "FeatureCollection", "features": [ {"type": "Feature", "properties": {"norad_id": 30500, "name": "FENGYUN 1C DEB", "group": "fengyun-1c-debris", "lat": 1.549987723345642, "lon": -101.39298550260318, "alt_km": 788.6545925468445, "timestamp": "2025-12-12T20:43:07.311853+00:00", "meta": {"OBJECT_NAME": "FENGYUN 1C DEB", "OBJECT_ID": "1999-025AHN", "EPOCH": "2025-12-12T04:52:03.720576", "MEAN_MOTION": 14.25186793, "ECCENTRICITY": 0.00648229, "INCLINATION": 99.0723, "RA_OF_ASC_NODE": 77.6767, "ARG_OF_PERICENTER": 117.8824, "MEAN_ANOMALY": 273.0615, "EPHEMERIS_TYPE": 0, "CLASSIFICATION_TYPE": "U", "NORAD_CAT_ID": 30500, "ELEMENT_SET_NO": 999, "REV_AT_EPOCH": 96674, "BSTAR": 0.0041433504, "MEAN_MOTION_DOT": 9.916e-05, "MEAN_MOTION_DDOT": 0}, "tle": {"line1": "1 30500U 99025AHN 25346.20282084  .00009916  00000+0  41434-2 0  9991", "line2": "2 30500  99.0723  77.6767 0064822 117.8824 273.0615 14.25186793966745"}}, "geometry": {"type": "Point", "coordinates": [-101.39298550260318, 1.549987723345642]}}, {"type": "Feature", "properties": {"norad_id": 30501, "name": "FENGYUN 1C DEB", "group": "fengyun-1c-debris", "lat": 54.4431183714448, "lon": 170.60723885238718, "alt_km": 795.9883081303888, "timestamp": "2025-12-12T20:43:07.311863+00:00", "meta": {"OBJECT_NAME": "FENGYUN 1C DEB", "OBJECT_ID": "1999-025AHP", "EPOCH": "2025-12-11T22:22:20.143776", "MEAN_MOTION": 14.25330893, "ECCENTRICITY": 0.004061, "INCLINATION": 99.0845, "RA_OF_ASC_NODE": 336.7088, "ARG_OF_PERICENTER": 205.1912, "MEAN_ANOMALY": 184.7235, "EPHEMERIS_TYPE": 0, "CLASSIFICATION_TYPE": "U", "NORAD_CAT_ID": 30501, "ELEMENT_SET_NO": 999, "REV_AT_EPOCH": 96908, "BSTAR": 0.0025286, "MEAN_MOTION_DOT": 5.965e-05, "MEAN_MOTION_DDOT": 0}, "tle": {"line1": "1 30501U 99025AHP 25345.93217759  .00005965  00000+0  25286-2 0  9995", "line2": "2 30501  99.0845 336.7088 0040610 205.1912 184.7235 14.25330893969082"}}, "geometry": {"type": "Point", "coordinates": [170.60723885238718, 54.4431183714448]}}, {"type": "Feature", "properties": {"norad_id": 30503, "name": "FENGYUN 1C DEB", "group": "fengyun-1c-debris", "lat": -23.00317263812906, "lon": -165.66617819445844, "alt_km": 841.8223253710303, "timestamp": "2025-12-12T20:43:07.311874+00:00", "meta": {"OBJECT_NAME": "FENGYUN 1C DEB", "OBJECT_ID": "1999-025AHR", "EPOCH": "2025-12-12T05:54:24.763680", "MEAN_MOTION": 14.16124274, "ECCENTRICITY": 0.00082932, "INCLINATION": 99.2045, "RA_OF_ASC_NODE": 189.7491, "ARG_OF_PERICENTER": 268.1669, "MEAN_ANOMALY": 163.9668, "EPHEMERIS_TYPE": 0, "CLASSIFICATION_TYPE": "U", "NORAD_CAT_ID": 30503, "ELEMENT_SET_NO": 999, "REV_AT_EPOCH": 97339, "BSTAR": 0.0004171021, "MEAN_MOTION_DOT": 7.77e-06, "MEAN_MOTION_DDOT": 0}, "tle": {"line1": "1 30503U 99025AHR 25346.24611995  .00000777  00000+0  41710-3 0  9999", "line2": "2 30503  99.2045 189.7491 0008293 268.1669 163.9668 14.16124274973393"}}, "geometry": {"type": "Point", "coordinates": [-165.66617819445844, -23.00317263812906]}}, {"type": "Feature", "properties": {"norad_id": 30504, "name": "FENGYUN 1C DEB", "group": "fengyun-1c-debris", "lat": -10.723870005085764, "lon": -148.67853472985598, "alt_km": 754.7596852499264, "timestamp": "2025-12-12T20:43:07.311884+00:00", "meta": {"OBJECT_NAME": "FENGYUN 1C DEB", "OBJECT_ID": "1999-025AHS", "EPOCH": "2025-12-11T01:38:46.526784", "MEAN_MOTION": 14.2048578, "ECCENTRICITY": 0.01120841, "INCLINATION": 99.0255, "RA_OF_ASC_NODE": 31.2149, "ARG_OF_PERICENTER": 221.2173, "MEAN_ANOMALY": 157.6074, "EPHEMERIS_TYPE": 0, "CLASSIFICATION_TYPE": "U", "NORAD_CAT_ID": 30504, "ELEMENT_SET_NO": 999, "REV_AT_EPOCH": 97370, "BSTAR": 0.00077210917, "MEAN_MOTION_DOT": 1.719e-05, "MEAN_MOTION_DDOT": 0}, "tle": {"line1": "1 30504U 99025AHS 25345.06859406  .00001719  00000+0  77211-3 0  9992", "line2": "2 30504  99.0255  31.2149 0112084 221.2173 157.6074 14.20485780973703"}}, "geometry": {"type": "Point", "coordinates": [-148.67853472985598, -10.723870005085764]}}, {"type": "Feature", "properties": {"norad_id": 30505, "name": "FENGYUN 1C DEB", "group": "fengyun-1c-debris", "lat": 80.91184987008704, "lon": -34.19684138405243, "alt_km": 850.6813591181863, "timestamp": "2025-12-12T20:43:07.311894+00:00", "meta": {"OBJECT_NAME": "FENGYUN 1C DEB", "OBJECT_ID": "1999-025AHT", "EPOCH": "2025-12-12T05:13:09.592032", "MEAN_MOTION": 14.22030419, "ECCENTRICITY": 0.00636728, "INCLINATION": 98.9265, "RA_OF_ASC_NODE": 65.8703, "ARG_OF_PERICENTER": 243.6684, "MEAN_ANOMALY": 144.1368, "EPHEMERIS_TYPE": 0, "CLASSIFICATION_TYPE": "U", "NORAD_CAT_ID": 30505, "ELEMENT_SET_NO": 999, "REV_AT_EPOCH": 96916, "BSTAR": 0.0026942283, "MEAN_MOTION_DOT": 6.039e-05, "MEAN_MOTION_DDOT": 0}, "tle": {"line1": "1 30505U 99025AHT 25346.21747213  .00006039  00000+0  26942-2 0  9997", "line2": "2 30505  98.9265  65.8703 0063672 243.6684 144.1368 14.22030419969164"}}, "geometry": {"type": "Point", "coordinates": [-34.19684138405243, 80.91184987008704]}}, {"type": "Feature", "properties": {"norad_id": 30506, "name": "FENGYUN 1C DEB", "group": "fengyun-1c-debris", "lat": 63.157258202791176, "lon": -170.33372472270872, "alt_km": 888.792618842861, "timestamp": "2025-12-12T20:43:07.311904+00:00", "meta": {"OBJECT_NAME": "FENGYUN 1C DEB", "OBJECT_ID": "1999-025AHU", "EPOCH": "2025-12-11T17:12:22.530816", "MEAN_MOTION": 14.08648859, "ECCENTRICITY": 0.00703325, "INCLINATION": 98.757, "RA_OF_ASC_NODE": 350.8205, "ARG_OF_PERICENTER": 350.8704, "MEAN_ANOMALY": 73.8464, "EPHEMERIS_TYPE": 0, "CLASSIFICATION_TYPE": "U", "NORAD_CAT_ID": 30506, "ELEMENT_SET_NO": 999, "REV_AT_EPOCH": 96807, "BSTAR": 0.00043292937, "MEAN_MOTION_DOT": 7.19e-06, "MEAN_MOTION_DDOT": 0}, "tle": {"line1": "1 30506U 99025AHU 25345.71692744  .00000719  00000+0  43293-3 0  9998", "line2": "2 30506  98.7570 350.8205 0070332 350.8704  73.8464 14.08648859968072"}}, "geometry": {"type": "Point", "coordinates": [-170.33372472270872, 63.157258202791176]}}, {"type": "Feature", "properties": {"norad_id": 30507, "name": "FENGYUN 1C DEB", "group": "fengyun-1c-debris", "lat": -53.68091260279273, "lon": -141.1229294199864, "alt_km": 806.3519454879543, "timestamp": "2025-12-12T20:43:07.311915+00:00", "meta": {"OBJECT_NAME": "FENGYUN 1C DEB", "OBJECT_ID": "1999-025AHV", "EPOCH": "2025-12-10T22:33:52.396992", "MEAN_MOTION": 14.13164072, "ECCENTRICITY": 0.0128396, "INCLINATION": 99.0136, "RA_OF_ASC_NODE": 49.4106, "ARG_OF_PERICENTER": 181.3494, "MEAN_ANOMALY": 353.865, "EPHEMERIS_TYPE": 0, "CLASSIFICATION_TYPE": "U", "NORAD_CAT_ID": 30507, "ELEMENT_SET_NO": 999, "REV_AT_EPOCH": 96472, "BSTAR": 0.0019555, "MEAN_MOTION_DOT": 3.913e-05, "MEAN_MOTION_DDOT": 0}, "tle": {"line1": "1 30507U 99025AHV 25344.94018978  .00003913  00000+0  19555-2 0  9996", "line2": "2 30507  99.0136  49.4106 0128396 181.3494 353.8650 14.13164072964725"}}, "geometry": {"type": "Point", "coordinates": [-141.1229294199864, -53.68091260279273]}}, {"type": "Feature", "properties": {"norad_id": 30509, "name": "FENGYUN 1C DEB", "group": "fengyun-1c-debris", "lat": 42.7833036622168, "lon": -149.22252845678844, "alt_km": 794.3995287255975, "timestamp": "2025-12-12T20:43:07.311925+00:00", "meta": {"OBJECT_NAME": "FENGYUN 1C DEB", "OBJECT_ID": "1999-025AHX", "EPOCH": "2025-12-12T02:31:07.591008", "MEAN_MOTION": 14.07643614, "ECCENTRICITY": 0.01016008, "INCLINATION": 98.4652, "RA_OF_ASC_NODE": 217.9885, "ARG_OF_PERICENTER": 65.2055, "MEAN_ANOMALY": 97.9265, "EPHEMERIS_TYPE": 0, "CLASSIFICATION_TYPE": "U", "NORAD_CAT_ID": 30509, "ELEMENT_SET_NO": 999, "REV_AT_EPOCH": 95713, "BSTAR": 0.0031215189, "MEAN_MOTION_DOT": 5.491e-05, "MEAN_MOTION_DDOT": 0}, "tle": {"line1": "1 30509U 99025AHX 25346.10494897  .00005491  00000+0  31215-2 0  9996", "line2": "2 30509  98.4652 217.9885 0101600  65.2055  97.9265 14.07643614957133"}}, "geometry": {"type": "Point", "coordinates": [-149.22252845678844, 42.7833036622168]}}, {"type": "Feature", "properties": {"norad_id": 30510, "name": "FENGYUN 1C DEB", "group": "fengyun-1c-debris", "lat": 79.26852462040169, "lon": -121.85433963519561, "alt_km": 822.791017380955, "timestamp": "2025-12-12T20:43:07.311935+00:00", "meta": {"OBJECT_NAME": "FENGYUN 1C DEB", "OBJECT_ID": "1999-025AHY", "EPOCH": "2025-12-12T00:07:48.730368", "MEAN_MOTION": 14.12843253, "ECCENTRICITY": 0.0078713, "INCLINATION": 99.2451, "RA_OF_ASC_NODE": 358.0104, "ARG_OF_PERICENTER": 168.2943, "MEAN_ANOMALY": 247.1526, "EPHEMERIS_TYPE": 0, "CLASSIFICATION_TYPE": "U", "NORAD_CAT_ID": 30510, "ELEMENT_SET_NO": 999, "REV_AT_EPOCH": 96564, "BSTAR": 0.0019099, "MEAN_MOTION_DOT": 3.612e-05, "MEAN_MOTION_DDOT": 0}, "tle": {"line1": "1 30510U 99025AHY 25346.00542512  .00003612  00000+0  19099-2 0  9994", "line2": "2 30510  99.2451 358.0104 0078713 168.2943 247.1526 14.12843253965641"}}, "geometry": {"type": "Point", "coordinates": [-121.85433963519561, 79.26852462040169]}}, {"type": "Feature", "properties": {"norad_id": 30514, "name": "FENGYUN 1C DEB", "group": "fengyun-1c-debris", "lat": -70.88856728581113, "lon": 165.10445620724926, "alt_km": 900.7978153268195, "timestamp": "2025-12-12T20:43:07.311945+00:00", "meta": {"OBJECT_NAME": "FENGYUN 1C DEB", "OBJECT_ID": "1999-025AJC", "EPOCH": "2025-12-12T01:08:25.389312", "MEAN_MOTION": 14.34351718, "ECCENTRICITY": 0.01745262, "INCLINATION": 98.4136, "RA_OF_ASC_NODE": 9.596, "ARG_OF_PERICENTER": 96.1729, "MEAN_ANOMALY": 265.937, "EPHEMERIS_TYPE": 0, "CLASSIFICATION_TYPE": "U", "NORAD_CAT_ID": 30514, "ELEMENT_SET_NO": 999, "REV_AT_EPOCH": 98215, "BSTAR": 0.0007853872, "MEAN_MOTION_DOT": 2.576e-05, "MEAN_MOTION_DDOT": 0}, "tle": {"line1": "1 30514U 99025AJC 25346.04751608  .00002576  00000+0  78539-3 0  9993", "line2": "2 30514  98.4136   9.5960 0174526  96.1729 265.9370 14.34351718982158"}}, "geometry": {"type": "Point", "coordinates": [165.10445620724926, -70.88856728581113]}}]}